[
    {
        "Altitude(m)": 607897.6404766913,
        "Argument of Periapsis(deg)": 0.0,
        "Eccentricity": 0.0,
        "Inclination(deg)": 60.0,
        "Latitude(deg)": -14.29308022003196,
        "Longitude(deg)": -53.38122901151328,
        "Mean Anomaly(deg)": -16.363600000000048,
        "RAAN(deg)": 55.00000000000001,
        "Satellite Name": "Test1 263",
        "Satellite Number": 263,
        "Semi-Major Axis(m)": 6980739.136638005,
        "Time(s)": 0
    },
    {
        "Altitude(m)": 607750.8408189964,
        "Argument of Periapsis(deg)": 0.00010418945913296404,
        "Eccentricity": 0.0,
        "Inclination(deg)": 60.0,
        "Latitude(deg)": -13.758921310370898,
        "Longitude(deg)": -53.09416052561263,
        "Mean Anomaly(deg)": -15.74349385453821,
        "RAAN(deg)": 54.999579950860266,
        "Satellite Name": "Test1 263",
        "Satellite Number": 263,
        "Semi-Major Axis(m)": 6980739.136638005,
        "Time(s)": 10
    },
    {
        "Altitude(m)": 607606.5654396891,
        "Argument of Periapsis(deg)": 0.0002083789182659281,
        "Eccentricity": 0.0,
        "Inclination(deg)": 60.0,
        "Latitude(deg)": -13.224287651336567,
        "Longitude(deg)": -52.80856845279275,
        "Mean Anomaly(deg)": -15.12338770907637,
        "RAAN(deg)": 54.999159901720525,
        "Satellite Name": "Test1 263",
        "Satellite Number": 263,
        "Semi-Major Axis(m)": 6980739.136638005,
        "Time(s)": 20
    },
    {
        "Altitude(m)": 607464.8587113222,
        "Argument of Periapsis(deg)": 0.00031256837739889213,
        "Eccentricity": 0.0,
        "Inclination(deg)": 60.0,
        "Latitude(deg)": -12.68919954742869,
        "Longitude(deg)": -52.52438811354134,
        "Mean Anomaly(deg)": -14.503281563614529,
        "RAAN(deg)": 54.99873985258077,
        "Satellite Name": "Test1 263",
        "Satellite Number": 263,
        "Semi-Major Axis(m)": 6980739.136638005,
        "Time(s)": 30
    },
    {
        "Altitude(m)": 607325.7637293589,
        "Argument of Periapsis(deg)": 0.0004167578365318562,
        "Eccentricity": 0.0,
        "Inclination(deg)": 60.0,
        "Latitude(deg)": -12.153677030598246,
        "Longitude(deg)": -52.24155517100956,
        "Mean Anomaly(deg)": -13.883175418152739,
        "RAAN(deg)": 54.99831980344103,
        "Satellite Name": "Test1 263",
        "Satellite Number": 263,
        "Semi-Major Axis(m)": 6980739.136638005,
        "Time(s)": 40
    },
    {
        "Altitude(m)": 607189.3222938764,
        "Argument of Periapsis(deg)": 0.0005209472956648203,
        "Eccentricity": 0.0,
        "Inclination(deg)": 60.0,
        "Latitude(deg)": -11.617739874189711,
        "Longitude(deg)": -51.960006599478305,
        "Mean Anomaly(deg)": -13.263069272690892,
        "RAAN(deg)": 54.99789975430129,
        "Satellite Name": "Test1 263",
        "Satellite Number": 263,
        "Semi-Major Axis(m)": 6980739.136638005,
        "Time(s)": 50
    },
    {
        "Altitude(m)": 607055.5748918422,
        "Argument of Periapsis(deg)": 0.0006251367547977843,
        "Eccentricity": 0.0,
        "Inclination(deg)": 60.0,
        "Latitude(deg)": -11.081407606526918,
        "Longitude(deg)": -51.67968014062728,
        "Mean Anomaly(deg)": -12.642963127229052,
        "RAAN(deg)": 54.99747970516154,
        "Satellite Name": "Test1 263",
        "Satellite Number": 263,
        "Semi-Major Axis(m)": 6980739.136638005,
        "Time(s)": 60
    },
    {
        "Altitude(m)": 606924.5606800865,
        "Argument of Periapsis(deg)": 0.0007293262139307483,
        "Eccentricity": 0.0,
        "Inclination(deg)": 60.0,
        "Latitude(deg)": -10.544699524161931,
        "Longitude(deg)": -51.4005137604515,
        "Mean Anomaly(deg)": -12.022856981767212,
        "RAAN(deg)": 54.9970596560218,
        "Satellite Name": "Test1 263",
        "Satellite Number": 263,
        "Semi-Major Axis(m)": 6980739.136638005,
        "Time(s)": 70
    },
    {
        "Altitude(m)": 606796.3174688858,
        "Argument of Periapsis(deg)": 0.0008335156730637124,
        "Eccentricity": 0.0,
        "Inclination(deg)": 60.0,
        "Latitude(deg)": -10.007634704807579,
        "Longitude(deg)": -51.12244661966973,
        "Mean Anomaly(deg)": -11.40275083630542,
        "RAAN(deg)": 54.996639606882056,
        "Satellite Name": "Test1 263",
        "Satellite Number": 263,
        "Semi-Major Axis(m)": 6980739.136638005,
        "Time(s)": 80
    },
    {
        "Altitude(m)": 606670.8817062038,
        "Argument of Periapsis(deg)": 0.0009377051321966765,
        "Eccentricity": 0.0,
        "Inclination(deg)": 60.0,
        "Latitude(deg)": -9.470232019968043,
        "Longitude(deg)": -50.845418531849774,
        "Mean Anomaly(deg)": -10.782644690843583,
        "RAAN(deg)": 54.996219557742315,
        "Satellite Name": "Test1 263",
        "Satellite Number": 263,
        "Semi-Major Axis(m)": 6980739.136638005,
        "Time(s)": 90
    },
    {
        "Altitude(m)": 606548.2884626231,
        "Argument of Periapsis(deg)": 0.0010418945913296407,
        "Eccentricity": 0.0,
        "Inclination(deg)": 60.0,
        "Latitude(deg)": -8.932510147287061,
        "Longitude(deg)": -50.56936942209301,
        "Mean Anomaly(deg)": -10.162538545381691,
        "RAAN(deg)": 54.99579950860257,
        "Satellite Name": "Test1 263",
        "Satellite Number": 263,
        "Semi-Major Axis(m)": 6980739.136638005,
        "Time(s)": 100
    },
    {
        "Altitude(m)": 606428.5714169,
        "Argument of Periapsis(deg)": 0.0011460840504626045,
        "Eccentricity": 0.0,
        "Inclination(deg)": 60.0,
        "Latitude(deg)": -8.39448758263183,
        "Longitude(deg)": -50.29424029912509,
        "Mean Anomaly(deg)": -9.542432399919901,
        "RAAN(deg)": 54.99537945946283,
        "Satellite Name": "Test1 263",
        "Satellite Number": 263,
        "Semi-Major Axis(m)": 6980739.136638005,
        "Time(s)": 110
    },
    {
        "Altitude(m)": 606311.7628422665,
        "Argument of Periapsis(deg)": 0.0012502735095955685,
        "Eccentricity": 0.0,
        "Inclination(deg)": 60.0,
        "Latitude(deg)": -7.85618265192585,
        "Longitude(deg)": -50.01997271501357,
        "Mean Anomaly(deg)": -8.922326254458062,
        "RAAN(deg)": 54.99495941032309,
        "Satellite Name": "Test1 263",
        "Satellite Number": 263,
        "Semi-Major Axis(m)": 6980739.136638005,
        "Time(s)": 120
    },
    {
        "Altitude(m)": 606197.8935933523,
        "Argument of Periapsis(deg)": 0.0013544629687285324,
        "Eccentricity": 0.0,
        "Inclination(deg)": 60.0,
        "Latitude(deg)": -7.317613522749896,
        "Longitude(deg)": -49.746508225359165,
        "Mean Anomaly(deg)": -8.302220108996279,
        "RAAN(deg)": 54.99453936118335,
        "Satellite Name": "Test1 263",
        "Satellite Number": 263,
        "Semi-Major Axis(m)": 6980739.136638005,
        "Time(s)": 130
    },
    {
        "Altitude(m)": 606086.9930938376,
        "Argument of Periapsis(deg)": 0.0014586524278614966,
        "Eccentricity": 0.0,
        "Inclination(deg)": 60.0,
        "Latitude(deg)": -6.778798215726741,
        "Longitude(deg)": -49.47378936280289,
        "Mean Anomaly(deg)": -7.682113963534388,
        "RAAN(deg)": 54.99411931204361,
        "Satellite Name": "Test1 263",
        "Satellite Number": 263,
        "Semi-Major Axis(m)": 6980739.136638005,
        "Time(s)": 140
    },
    {
        "Altitude(m)": 605979.0893248136,
        "Argument of Periapsis(deg)": 0.0015628418869944607,
        "Eccentricity": 0.0,
        "Inclination(deg)": 60.0,
        "Latitude(deg)": -6.239754615703974,
        "Longitude(deg)": -49.2017590980741,
        "Mean Anomaly(deg)": -7.0620078180725905,
        "RAAN(deg)": 54.99369926290386,
        "Satellite Name": "Test1 263",
        "Satellite Number": 263,
        "Semi-Major Axis(m)": 6980739.136638005,
        "Time(s)": 150
    },
    {
        "Altitude(m)": 605874.2088138299,
        "Argument of Periapsis(deg)": 0.0016670313461274247,
        "Eccentricity": 0.0,
        "Inclination(deg)": 60.0,
        "Latitude(deg)": -5.70050048274973,
        "Longitude(deg)": -48.930360301422404,
        "Mean Anomaly(deg)": -6.441901672610751,
        "RAAN(deg)": 54.99327921376412,
        "Satellite Name": "Test1 263",
        "Satellite Number": 263,
        "Semi-Major Axis(m)": 6980739.136638005,
        "Time(s)": 160
    },
    {
        "Altitude(m)": 605772.3766246536,
        "Argument of Periapsis(deg)": 0.0017712208052603888,
        "Eccentricity": 0.0,
        "Inclination(deg)": 60.0,
        "Latitude(deg)": -5.16105346298005,
        "Longitude(deg)": -48.65953671727905,
        "Mean Anomaly(deg)": -5.821795527148961,
        "RAAN(deg)": 54.99285916462438,
        "Satellite Name": "Test1 263",
        "Satellite Number": 263,
        "Semi-Major Axis(m)": 6980739.136638005,
        "Time(s)": 170
    },
    {
        "Altitude(m)": 605673.6163477785,
        "Argument of Periapsis(deg)": 0.001875410264393353,
        "Eccentricity": 0.0,
        "Inclination(deg)": 60.0,
        "Latitude(deg)": -4.6214310992275,
        "Longitude(deg)": -48.38923242637028,
        "Mean Anomaly(deg)": -5.201689381687121,
        "RAAN(deg)": 54.992439115484636,
        "Satellite Name": "Test1 263",
        "Satellite Number": 263,
        "Semi-Major Axis(m)": 6980739.136638005,
        "Time(s)": 180
    },
    {
        "Altitude(m)": 605577.9500916237,
        "Argument of Periapsis(deg)": 0.0019795997235263173,
        "Eccentricity": 0.0,
        "Inclination(deg)": 60.0,
        "Latitude(deg)": -4.081650841568707,
        "Longitude(deg)": -48.11939130812778,
        "Mean Anomaly(deg)": -4.58158323622528,
        "RAAN(deg)": 54.992019066344895,
        "Satellite Name": "Test1 263",
        "Satellite Number": 263,
        "Semi-Major Axis(m)": 6980739.136638005,
        "Time(s)": 190
    }
]